KUIPER-00074            
1 64821U 25151F   25269.25003472 -.00623992  00000+0 -35064-1 0  9993
2 64821  51.8831 301.5561 0012827  73.7298 116.9536 15.15289834  5604
KUIPER-00075            
1 64822U 25151G   25269.26237422  .00050864  00000+0  13391-2 0  9999
2 64822  51.8773 299.9226 0006179  39.3524 320.7911 15.38027231 11066
KUIPER-00076            
1 64823U 25151H   25269.25003472 -.00821089  00000+0 -52026-1 0  9999
2 64823  51.8977 302.7040 0006355  59.6931 358.3538 15.10986401  5274
KUIPER-00077            
1 64824U 25151J   25269.25003472 -.01039869  00000+0 -10298+0 0  9991
2 64824  51.8949 305.7542 0006954  28.8503 348.4648 14.94459765  5127
KUIPER-00078            
1 64825U 25151K   25269.25003472 -.00936869  00000+0 -74645-1 0  9995
2 64825  51.8877 304.0809 0009715  91.8775  18.4702 15.02916029  5637
KUIPER-00079            
1 64826U 25151L   25269.25003472 -.01565046  00000+0 -19318+0 0  9996
2 64826  51.8979 307.5378 0012715  59.7286   7.7287 14.85892807  5168
KUIPER-00080            
1 64827U 25151M   25269.25003472 -.00038077  00000+0 -46948-2 0  9997
2 64827  51.8993 307.7460 0005982  81.5035  44.4966 14.82490618  1307
KUIPER-00082            
1 64828U 25151N   25269.25003472 -.00726742  00000+0 -32234-1 0  9993
2 64828  51.8849 300.9194 0006660  54.9612 148.4188 15.23446953  4736
KUIPER-00083            
1 64829U 25151P   25269.25003472 -.01009540  00000+0 -78964-1 0  9995
2 64829  51.9089 304.0736 0010284  51.7184 315.8938 15.03345058  5788
KUIPER-00084            
1 64830U 25151Q   25268.29905069  .00005100  00000+0  69847-3 0  9990
2 64830  51.8993 316.8493 0011533  36.1921 323.9820 14.79850315 10749
KUIPER-00085            
1 64831U 25151R   25269.25003472 -.00298885  00000+0 -13665-1 0  9996
2 64831  51.8880 300.9928 0008903  44.6543  75.8018 15.21368980  5345
KUIPER-00086            
1 64832U 25151S   25269.25003472 -.01330500  00000+0 -13234+0 0  9999
2 64832  51.8931 305.8023 0010658  54.2854 163.7521 14.94512218  5671
KUIPER-00087            
1 64833U 25151T   25269.28163215  .00080696  00000+0  21686-2 0  9993
2 64833  51.8778 300.0449 0007904  45.8236 314.3399 15.37171311 11059
KUIPER-00089            
1 64834U 25151U   25269.25003472  .00002305  00000+0  92100-4 0  9991
2 64834  51.8811 300.5551 0006275  50.1444 328.2247 15.29397365  5573
KUIPER-00090            
1 64835U 25151V   25268.26452586  .00054406  00000+0  14869-2 0  9999
2 64835  51.8781 305.2207 0008017  56.7029 303.4725 15.36827349 10904
KUIPER-00091            
1 64836U 25151W   25269.25003472 -.00858077  00000+0 -28910-1 0  9995
2 64836  51.8813 300.2283 0009021  52.6639 104.2275 15.32766848  5721
KUIPER-00092            
1 64837U 25151X   25269.25003472 -.00030091  00000+0 -14941-2 0  9994
2 64837  51.8864 301.6802 0010207  42.0920 152.4645 15.16941442  5840
KUIPER-00093            
1 64838U 25151Y   25269.25003472 -.01503234  00000+0 -98691-1 0  9993
2 64838  51.8903 302.8352 0013878  59.7482 213.8211 15.10420244  4580
KUIPER-00094            
1 64839U 25151Z   25269.25003472 -.00939380  00000+0 -37142-1 0  9992
2 64839  51.8822 300.5411 0008892  56.4966 294.2601 15.27448257  4884
KUIPER-00081            
1 65132U 25171A   25268.93028768  .00117220  00000+0  31357-2 0  9992
2 65132  51.8747 185.5339 0005732 222.9033 137.1507 15.37131996  8235
KUIPER-00088            
1 65133U 25171B   25269.18998404  .00073803  00000+0  19976-2 0  9995
2 65133  51.8747 184.2780 0004767 285.6083  74.4378 15.37009688  8275
KUIPER-00095            
1 65134U 25171C   25269.01415184  .00031120  00000+0  87423-3 0  9996
2 65134  51.8758 185.3375 0003931 322.6125  37.4588 15.36253855  8246
KUIPER-00096            
1 65135U 25171D   25269.07113250  .00032529  00000+0  90260-3 0  9999
2 65135  51.8747 184.9696 0003531 298.7231  61.3400 15.36617714  8251
KUIPER-00097            
1 65136U 25171E   25269.01554175  .00037747  00000+0  10559-2 0  9998
2 65136  51.8755 185.3473 0003837 314.7436  45.3237 15.36291726  8233
KUIPER-00098            
1 65137U 25171F   25268.93176352  .00083563  00000+0  22706-2 0  9990
2 65137  51.8756 185.5442 0004746 273.2531  86.7913 15.36830575  7575
KUIPER-00099            
1 65138U 25171G   25269.06439177  .00091973  00000+0  24968-2 0  9999
2 65138  51.8754 184.9347 0004340 288.0471  72.0042 15.36812845  8244
KUIPER-00100            
1 65139U 25171H   25269.07066952  .00030996  00000+0  86135-3 0  9991
2 65139  51.8747 184.9671 0004080 299.6406  60.4173 15.36593883  8248
KUIPER-00102            
1 65140U 25171J   25269.01509249  .00032913  00000+0  92525-3 0  9999
2 65140  51.8756 185.3407 0003648 317.4172  42.6531 15.36204386  8236
KUIPER-00103            
1 65141U 25171K   25269.25003472 -.00773063  00000+0 -30881-1 0  9998
2 65141  51.8793 184.4393 0004878 294.8339 178.1825 15.27078349  5899
KUIPER-00104            
1 65142U 25171L   25269.07248709  .00029983  00000+0  83716-3 0  9993
2 65142  51.8759 184.9897 0003328 302.7060  57.3605 15.36464874  8243
KUIPER-00105            
1 65143U 25171M   25269.25003472 -.00273658  00000+0 -81372-2 0  9997
2 65143  51.8755 183.9465 0004647 279.7661  67.6680 15.35292804  5284
KUIPER-00106            
1 65144U 25171N   25269.25003472 -.00367281  00000+0 -15453-1 0  9990
2 65144  51.8791 184.5551 0005713 285.1728  97.8002 15.24505873  4652
KUIPER-00107            
1 65145U 25171P   25269.06900205  .00027170  00000+0  75656-3 0  9991
2 65145  51.8753 184.9657 0004117 300.2368  59.8211 15.36600849  8250
KUIPER-00108            
1 65146U 25171Q   25269.01643942  .00031671  00000+0  89074-3 0  9999
2 65146  51.8778 185.3620 0004194 318.3568  41.7099 15.36207811  8245
KUIPER-00109            
1 65147U 25171R   25269.19362237  .00087050  00000+0  23578-2 0  9992
2 65147  51.8751 184.2966 0004581 295.7597  64.2916 15.36909492  8262
KUIPER-00110            
1 65148U 25171S   25269.25003472 -.00265592  00000+0 -93527-2 0  9995
2 65148  51.8781 184.1928 0005391 306.9302 270.9794 15.29889112  5683
KUIPER-00111            
1 65149U 25171T   25269.25003472 -.00500497  00000+0 -24256-1 0  9994
2 65149  51.8824 185.0852 0005068 305.6968 218.4915 15.20357587  4995
KUIPER-00112            
1 65150U 25171U   25269.01690121  .00070917  00000+0  19707-2 0  9996
2 65150  51.8766 185.3613 0005154 328.7778  31.2901 15.36207596  8239
KUIPER-00114            
1 65151U 25171V   25269.25003472 -.00926493  00000+0 -54875-1 0  9995
2 65151  51.8932 186.0477 0003838 294.6420  50.4201 15.13732117  5255
KUIPER-00115            
1 65152U 25171W   25269.25003472 -.00827987  00000+0 -28336-1 0  9997
2 65152  51.8755 184.1312 0006176 276.8615 344.7859 15.32216397  5922
KUIPER-00116            
1 65153U 25171X   25269.25003472 -.00476127  00000+0 -23745-1 0  9993
2 65153  51.8890 185.2172 0003659 281.4173 129.9758 15.19277373  5504
KUIPER-00118            
1 65154U 25171Y   25269.25003472  .00068850  00000+0  37094-2 0  9995
2 65154  51.8791 185.9116 0003678 283.6673 198.2727 15.14159107  5582
KUIPER-00119            
1 65155U 25171Z   25269.19018162  .00068486  00000+0  18577-2 0  9991
2 65155  51.8746 184.2751 0005028 291.2878  68.7572 15.36975478  8261
